{
  "type": "FeatureCollection",
  "features": [
    {
      "type": "Feature",
      "properties": {
        "norad_id": 43262,
        "name": "GAOFEN-1 04",
        "group": "resource",
        "lat": 75.14118552870941,
        "lon": -92.92436565007812,
        "alt_km": 633.1905162124285,
        "timestamp": "2025-12-22T20:43:45.500436+00:00",
        "meta_object_name": "GAOFEN-1 04",
        "meta_object_id": "2018-031D",
        "meta_epoch": "2025-12-22T13:45:38.647008",
        "meta_mean_motion": 14.76423981,
        "meta_eccentricity": 6.386e-05,
        "meta_inclination": 98.0796,
        "meta_ra_of_asc_node": 54.4126,
        "meta_arg_of_pericenter": 54.8072,
        "meta_mean_anomaly": 305.3197,
        "meta_ephemeris_type": 0,
        "meta_classification_type": "U",
        "meta_norad_cat_id": 43262,
        "meta_element_set_no": 999,
        "meta_rev_at_epoch": 41662,
        "meta_bstar": 9.5468863e-05,
        "meta_mean_motion_dot": 6.12e-06,
        "meta_mean_motion_ddot": 0,
        "tle_line1": "1 43262U 18031D   25356.57336397  .00000612  00000+0  95469-4 0  9999",
        "tle_line2": "2 43262  98.0796  54.4126 0000638  54.8072 305.3197 14.76423981416625"
      },
      "geometry": {
        "type": "Point",
        "coordinates": [
          -92.92436565007812,
          75.14118552870941
        ]
      }
    },
    {
      "type": "Feature",
      "properties": {
        "norad_id": 43437,
        "name": "SENTINEL-3B",
        "group": "resource",
        "lat": -77.12660372259722,
        "lon": -159.71406314929482,
        "alt_km": 811.1137565263571,
        "timestamp": "2025-12-22T20:43:45.500447+00:00",
        "meta_object_name": "SENTINEL-3B",
        "meta_object_id": "2018-039A",
        "meta_epoch": "2025-12-22T02:40:53.006304",
        "meta_mean_motion": 14.26737543,
        "meta_eccentricity": 0.00016188,
        "meta_inclination": 98.6254,
        "meta_ra_of_asc_node": 61.1622,
        "meta_arg_of_pericenter": 92.471,
        "meta_mean_anomaly": 267.6656,
        "meta_ephemeris_type": 0,
        "meta_classification_type": "U",
        "meta_norad_cat_id": 43437,
        "meta_element_set_no": 999,
        "meta_rev_at_epoch": 39887,
        "meta_bstar": 7.7396733e-05,
        "meta_mean_motion_dot": 1.44e-06,
        "meta_mean_motion_ddot": 0,
        "tle_line1": "1 43437U 18039A   25356.11172461  .00000144  00000+0  77397-4 0  9991",
        "tle_line2": "2 43437  98.6254  61.1622 0001618  92.4710 267.6656 14.26737543398879"
      },
      "geometry": {
        "type": "Point",
        "coordinates": [
          -159.71406314929482,
          -77.12660372259722
        ]
      }
    },
    {
      "type": "Feature",
      "properties": {
        "norad_id": 43461,
        "name": "GAOFEN-5 01",
        "group": "resource",
        "lat": 34.62800385005921,
        "lon": -45.87264664653156,
        "alt_km": 689.7575434906457,
        "timestamp": "2025-12-22T20:43:45.500456+00:00",
        "meta_object_name": "GAOFEN-5 01",
        "meta_object_id": "2018-043A",
        "meta_epoch": "2025-12-22T12:20:51.410688",
        "meta_mean_motion": 14.60419833,
        "meta_eccentricity": 5.083e-05,
        "meta_inclination": 98.4341,
        "meta_ra_of_asc_node": 319.653,
        "meta_arg_of_pericenter": 269.1622,
        "meta_mean_anomaly": 90.9519,
        "meta_ephemeris_type": 0,
        "meta_classification_type": "U",
        "meta_norad_cat_id": 43461,
        "meta_element_set_no": 999,
        "meta_rev_at_epoch": 40590,
        "meta_bstar": 9.4988125e-05,
        "meta_mean_motion_dot": 4.11e-06,
        "meta_mean_motion_ddot": 0,
        "tle_line1": "1 43461U 18043A   25356.51448392  .00000411  00000+0  94988-4 0  9998",
        "tle_line2": "2 43461  98.4341 319.6530 0000508 269.1622  90.9519 14.60419833405907"
      },
      "geometry": {
        "type": "Point",
        "coordinates": [
          -45.87264664653156,
          34.62800385005921
        ]
      }
    },
    {
      "type": "Feature",
      "properties": {
        "norad_id": 43484,
        "name": "GAOFEN-6",
        "group": "resource",
        "lat": -75.83532380193728,
        "lon": -152.11589050534724,
        "alt_km": 653.8364159405828,
        "timestamp": "2025-12-22T20:43:45.500467+00:00",
        "meta_object_name": "GAOFEN-6",
        "meta_object_id": "2018-048A",
        "meta_epoch": "2025-12-22T14:41:04.489728",
        "meta_mean_motion": 14.76582788,
        "meta_eccentricity": 0.00127451,
        "meta_inclination": 97.8021,
        "meta_ra_of_asc_node": 60.5473,
        "meta_arg_of_pericenter": 34.4218,
        "meta_mean_anomaly": 325.7816,
        "meta_ephemeris_type": 0,
        "meta_classification_type": "U",
        "meta_norad_cat_id": 43484,
        "meta_element_set_no": 999,
        "meta_rev_at_epoch": 40733,
        "meta_bstar": 0.00013981698,
        "meta_mean_motion_dot": 9.27e-06,
        "meta_mean_motion_ddot": 0,
        "tle_line1": "1 43484U 18048A   25356.61185752  .00000927  00000+0  13982-3 0  9993",
        "tle_line2": "2 43484  97.8021  60.5473 0012745  34.4218 325.7816 14.76582788407333"
      },
      "geometry": {
        "type": "Point",
        "coordinates": [
          -152.11589050534724,
          -75.83532380193728
        ]
      }
    },
    {
      "type": "Feature",
      "properties": {
        "norad_id": 43585,
        "name": "GAOFEN-11 01",
        "group": "resource",
        "lat": -13.03656097609429,
        "lon": -121.95177830341449,
        "alt_km": 421.8792509445884,
        "timestamp": "2025-12-22T20:43:45.500477+00:00",
        "meta_object_name": "GAOFEN-11 01",
        "meta_object_id": "2018-063A",
        "meta_epoch": "2025-12-22T13:41:55.798944",
        "meta_mean_motion": 15.49490986,
        "meta_eccentricity": 0.00039118,
        "meta_inclination": 97.155,
        "meta_ra_of_asc_node": 59.4244,
        "meta_arg_of_pericenter": 262.9764,
        "meta_mean_anomaly": 97.1043,
        "meta_ephemeris_type": 0,
        "meta_classification_type": "U",
        "meta_norad_cat_id": 43585,
        "meta_element_set_no": 999,
        "meta_rev_at_epoch": 41294,
        "meta_bstar": 0.00038373063,
        "meta_mean_motion_dot": 0.00021064,
        "meta_mean_motion_ddot": 0,
        "tle_line1": "1 43585U 18063A   25356.57078471  .00021064  00000+0  38373-3 0  9992",
        "tle_line2": "2 43585  97.1550  59.4244 0003911 262.9764  97.1043 15.49490986412941"
      },
      "geometry": {
        "type": "Point",
        "coordinates": [
          -121.95177830341449,
          -13.03656097609429
        ]
      }
    },
    {
      "type": "Feature",
      "properties": {
        "norad_id": 43613,
        "name": "ICESAT-2",
        "group": "resource",
        "lat": -59.21218654867583,
        "lon": 60.10014137244981,
        "alt_km": 489.2646746271812,
        "timestamp": "2025-12-22T20:43:45.500487+00:00",
        "meta_object_name": "ICESAT-2",
        "meta_object_id": "2018-070A",
        "meta_epoch": "2025-12-22T11:49:42.696192",
        "meta_mean_motion": 15.28279321,
        "meta_eccentricity": 0.00030811,
        "meta_inclination": 92.0042,
        "meta_ra_of_asc_node": 243.3695,
        "meta_arg_of_pericenter": 120.0223,
        "meta_mean_anomaly": 240.1332,
        "meta_ephemeris_type": 0,
        "meta_classification_type": "U",
        "meta_norad_cat_id": 43613,
        "meta_element_set_no": 999,
        "meta_rev_at_epoch": 40547,
        "meta_bstar": 0.00051409572,
        "meta_mean_motion_dot": 0.00014166,
        "meta_mean_motion_ddot": 0,
        "tle_line1": "1 43613U 18070A   25356.49285528  .00014166  00000+0  51410-3 0  9998",
        "tle_line2": "2 43613  92.0042 243.3695 0003081 120.0223 240.1332 15.28279321405475"
      },
      "geometry": {
        "type": "Point",
        "coordinates": [
          60.10014137244981,
          -59.21218654867583
        ]
      }
    },
    {
      "type": "Feature",
      "properties": {
        "norad_id": 43719,
        "name": "HYSIS",
        "group": "resource",
        "lat": 9.328748096726704,
        "lon": 58.466831489143296,
        "alt_km": 634.7507499095382,
        "timestamp": "2025-12-22T20:43:45.500497+00:00",
        "meta_object_name": "HYSIS",
        "meta_object_id": "2018-096A",
        "meta_epoch": "2025-12-22T14:11:26.013120",
        "meta_mean_motion": 14.78668616,
        "meta_eccentricity": 9.512e-05,
        "meta_inclination": 98.0087,
        "meta_ra_of_asc_node": 59.521,
        "meta_arg_of_pericenter": 52.0147,
        "meta_mean_anomaly": 308.115,
        "meta_ephemeris_type": 0,
        "meta_classification_type": "U",
        "meta_norad_cat_id": 43719,
        "meta_element_set_no": 999,
        "meta_rev_at_epoch": 38132,
        "meta_bstar": 0.00012146948,
        "meta_mean_motion_dot": 8.38e-06,
        "meta_mean_motion_ddot": 0,
        "tle_line1": "1 43719U 18096A   25356.59127330  .00000838  00000+0  12147-3 0  9995",
        "tle_line2": "2 43719  98.0087  59.5210 0000951  52.0147 308.1150 14.78668616381322"
      },
      "geometry": {
        "type": "Point",
        "coordinates": [
          58.466831489143296,
          9.328748096726704
        ]
      }
    }
  ]
}